NORAD_CAT_ID,OBJECT_NAME,OBJECT_TYPE,EPOCH,MEAN_MOTION,ECCENTRICITY,INCLINATION,RA_OF_ASC_NODE,ARG_OF_PERICENTER,MEAN_ANOMALY,BSTAR,MEAN_MOTION_DOT,MEAN_MOTION_DDOT,TLE_LINE0,TLE_LINE1,TLE_LINE2,SEMIMAJOR_AXIS,PERIOD,APOGEE,PERIGEE,DECAYED
53555.0,STARLINK-4504,PAYLOAD,2024-02-03 22:16:57,15.08834817,0.0001456,53.2165,257.2675,97.7014,262.4144,1.4703e-05,-5.4e-07,0.0,0 STARLINK-4504,1 53555U 22101AE  24034.92844851 -.00000054  00000-0  14703-4 0  9992,2 53555  53.2165 257.2675 0001456  97.7014 262.4144 15.08834817 81518,6917.896,95.438,540.768,538.754,0.0
53555.0,STARLINK-4504,PAYLOAD,2024-02-03 23:52:21,15.08835306,0.0001384,53.2158,256.9682,95.6165,264.4985,1.5732e-05,-3.8e-07,0.0,0 STARLINK-4504,1 53555U 22101AE  24034.99468805 -.00000038  00000-0  15732-4 0  9995,2 53555  53.2158 256.9682 0001384  95.6165 264.4985 15.08835306 81528,6917.895,95.438,540.717,538.802,0.0
53555.0,STARLINK-4504,PAYLOAD,2024-02-04 18:56:58,15.08844382,0.0001448,53.2167,253.3975,93.0977,267.0181,7.8432e-05,9.61e-06,0.0,0 STARLINK-4504,1 53555U 22101AE  24035.78956142  .00000961  00000-0  78432-4 0  9999,2 53555  53.2167 253.3975 0001448  93.0977 267.0181 15.08844382 80988,6917.867,95.437,540.734,538.73,0.0
53555.0,STARLINK-4504,PAYLOAD,2024-02-04 22:07:44,15.08845785,0.0001398,53.2164,252.803,92.9591,267.1562,8.4509e-05,1.057e-05,0.0,0 STARLINK-4504,1 53555U 22101AE  24035.92203983  .00001057  00000-0  84509-4 0  9992,2 53555  53.2164 252.8030 0001398  92.9591 267.1562 15.08845785 81663,6917.863,95.437,540.695,538.761,0.0
53555.0,STARLINK-4504,PAYLOAD,2024-02-05 07:40:03,15.0884025,0.0001351,53.2157,251.0177,108.531,251.5829,0.00014237,1.979e-05,0.0,0 STARLINK-4504,1 53555U 22101AE  24036.31948091  .00001979  00000-0  14237-3 0  9995,2 53555  53.2157 251.0177 0001351 108.5310 251.5829 15.08840250 81722,6917.88,95.438,540.679,538.81,0.0
53555.0,STARLINK-4504,PAYLOAD,2024-02-05 20:23:08,15.08843206,0.0001253,53.2155,248.6394,103.9902,256.1229,9.5056e-05,1.225e-05,0.0,0 STARLINK-4504,1 53555U 22101AE  24036.84939978  .00001225  00000-0  95056-4 0  9990,2 53555  53.2155 248.6394 0001253 103.9902 256.1229 15.08843206 81145,6917.871,95.437,540.602,538.869,0.0
53555.0,STARLINK-4504,PAYLOAD,2024-02-05 23:33:54,15.08844219,0.0001253,53.2156,248.0443,105.4377,254.6753,9.9821e-05,1.301e-05,0.0,0 STARLINK-4504,1 53555U 22101AE  24036.98187865  .00001301  00000-0  99821-4 0  9994,2 53555  53.2156 248.0443 0001253 105.4377 254.6753 15.08844219 81823,6917.867,95.437,540.599,538.866,0.0
53555.0,STARLINK-4504,PAYLOAD,2024-02-06 20:13:55,15.08847235,0.0001333,53.2165,244.1783,103.1893,256.9248,-4.3878e-06,-3.58e-06,0.0,0 STARLINK-4504,1 53555U 22101AE  24037.84299891 -.00000358  00000-0 -43878-5 0  9998,2 53555  53.2165 244.1783 0001333 103.1893 256.9248 15.08847235 81953,6917.858,95.437,540.645,538.801,0.0
53555.0,STARLINK-4504,PAYLOAD,2024-02-06 23:24:41,15.08844787,0.0001348,53.2162,243.5837,101.1209,258.9935,1.7889e-05,-3e-08,0.0,0 STARLINK-4504,1 53555U 22101AE  24037.97547927 -.00000003  00000-0  17889-4 0  9996,2 53555  53.2162 243.5837 0001348 101.1209 258.9935 15.08844787 81312,6917.866,95.437,540.663,538.798,0.0
53555.0,STARLINK-4504,PAYLOAD,2024-02-07 20:04:42,15.0884033,0.0001463,53.2173,239.7197,92.4537,267.6623,1.0235e-05,-1.25e-06,0.0,0 STARLINK-4504,1 53555U 22101AE  24038.83660248 -.00000125  00000-0  10235-4 0  9997,2 53555  53.2173 239.7197 0001463  92.4537 267.6623 15.08840330 82103,6917.879,95.438,540.756,538.732,0.0
53555.0,STARLINK-4504,PAYLOAD,2024-02-07 23:15:28,15.08838037,0.0001385,53.2169,239.1232,89.6228,270.4923,1.8869e-05,1.2e-07,0.0,0 STARLINK-4504,1 53555U 22101AE  24038.96908337  .00000012  00000-0  18869-4 0  9990,2 53555  53.2169 239.1232 0001385  89.6228 270.4923 15.08838037 81464,6917.886,95.438,540.71,538.793,0.0
53555.0,STARLINK-4504,PAYLOAD,2024-02-08 19:55:29,15.08837938,0.0001375,53.2167,235.2578,89.4172,270.6978,3.6982e-05,3.01e-06,0.0,0 STARLINK-4504,1 53555U 22101AE  24039.83020500  .00000301  00000-0  36982-4 0  9991,2 53555  53.2167 235.2578 0001375  89.4172 270.6978 15.08837938 82256,6917.887,95.438,540.703,538.8,0.0
53555.0,STARLINK-4504,PAYLOAD,2024-02-09 13:24:44,15.08837746,0.0001368,53.2166,231.9875,89.5667,270.5482,6.088e-05,6.81e-06,0.0,0 STARLINK-4504,1 53555U 22101AE  24040.55884591  .00000681  00000-0  60880-4 0  9995,2 53555  53.2166 231.9875 0001368  89.5667 270.5482 15.08837746 82368,6917.887,95.438,540.699,538.806,0.0
53555.0,STARLINK-4504,PAYLOAD,2024-02-09 19:46:16,15.08839393,0.0001358,53.2167,230.798,89.0821,271.0327,6.9513e-05,8.19e-06,0.0,0 STARLINK-4504,1 53555U 22101AE  24040.82380500  .00000819  00000-0  69513-4 0  9991,2 53555  53.2167 230.7980 0001358  89.0821 271.0327 15.08839393 81744,6917.882,95.438,540.687,538.808,0.0
53555.0,STARLINK-4504,PAYLOAD,2024-02-10 21:12:27,15.0883913,0.000137,53.2166,226.0381,83.3702,276.7446,5.2459e-05,5.47e-06,0.0,0 STARLINK-4504,1 53555U 22101AE  24041.88364852  .00000547  00000-0  52459-4 0  9999,2 53555  53.2166 226.0381 0001370  83.3702 276.7446 15.08839130 82569,6917.883,95.438,540.696,538.8,0.0
53555.0,STARLINK-4504,PAYLOAD,2024-02-11 19:27:50,15.08847081,0.0001394,53.2169,221.8757,79.9827,280.1323,9.8608e-05,1.282e-05,0.0,0 STARLINK-4504,1 53555U 22101AE  24042.81100173  .00001282  00000-0  98608-4 0  9990,2 53555  53.2169 221.8757 0001394  79.9827 280.1323 15.08847081 82047,6917.859,95.437,540.688,538.759,0.0
53555.0,STARLINK-4504,PAYLOAD,2024-02-11 21:03:13,15.08848518,0.0001398,53.2171,221.5782,83.5097,276.6054,0.0001084,1.438e-05,0.0,0 STARLINK-4504,1 53555U 22101AE  24042.87723990  .00001438  00000-0  10840-3 0  9998,2 53555  53.2171 221.5782 0001398  83.5097 276.6054 15.08848518 82710,6917.854,95.437,540.686,538.752,0.0
53555.0,STARLINK-4504,PAYLOAD,2024-02-12 11:21:42,15.08837654,0.000123,53.2158,218.9021,97.7582,262.355,1.4083e-05,-6.4e-07,0.0,0 STARLINK-4504,1 53555U 22101AE  24043.47341014 -.00000064  00000-0  14083-4 0  9997,2 53555  53.2158 218.9021 0001230  97.7582 262.3550 15.08837654 82141,6917.888,95.438,540.603,538.902,0.0
53555.0,STARLINK-4504,PAYLOAD,2024-02-12 19:18:38,15.08841911,0.0001441,53.2165,217.4178,80.3603,279.7552,6.4079e-05,7.32e-06,0.0,0 STARLINK-4504,1 53555U 22101AE  24043.80460770  .00000732  00000-0  64079-4 0  9996,2 53555  53.2165 217.4178 0001441  80.3603 279.7552 15.08841911 82855,6917.875,95.437,540.736,538.743,0.0
53555.0,STARLINK-4504,PAYLOAD,2024-02-13 17:34:01,15.08846177,0.0001324,53.2163,213.2541,94.1232,265.9911,-7.305e-06,-4.04e-06,0.0,0 STARLINK-4504,1 53555U 22101AE  24044.73196640 -.00000404  00000-0 -73050-5 0  9999,2 53555  53.2163 213.2541 0001324  94.1232 265.9911 15.08846177 82330,6917.862,95.437,540.642,538.811,0.0
53555.0,STARLINK-4504,PAYLOAD,2024-02-14 14:14:02,15.08841982,0.0001427,53.2164,209.3884,95.0491,265.0664,7.6053e-05,9.23e-06,0.0,0 STARLINK-4504,1 53555U 22101AE  24045.59308669  .00000923  00000-0  76053-4 0  9999,2 53555  53.2164 209.3884 0001427  95.0491 265.0664 15.08841982 83121,6917.874,95.437,540.727,538.752,0.0
53555.0,STARLINK-4504,PAYLOAD,2024-02-14 17:24:48,15.08844304,0.0001428,53.2167,208.7934,97.3339,262.7815,8.8202e-05,1.116e-05,0.0,0 STARLINK-4504,1 53555U 22101AE  24045.72556464  .00001116  00000-0  88202-4 0  9996,2 53555  53.2167 208.7934 0001428  97.3339 262.7815 15.08844304 83145,6917.867,95.437,540.72,538.744,0.0
53555.0,STARLINK-4504,PAYLOAD,2024-02-15 10:54:04,15.08834365,0.0001515,53.2172,205.523,98.7414,261.3749,2.4485e-05,1.02e-06,0.0,0 STARLINK-4504,1 53555U 22101AE  24046.45421352  .00000102  00000-0  24485-4 0  9991,2 53555  53.2172 205.5230 0001515  98.7414 261.3749 15.08834365 82596,6917.898,95.438,540.811,538.715,0.0
53555.0,STARLINK-4504,PAYLOAD,2024-02-15 14:04:50,15.08836073,0.0001494,53.2172,204.9286,98.1983,261.9178,3.737e-05,3.07e-06,0.0,0 STARLINK-4504,1 53555U 22101AE  24046.58669247  .00000307  00000-0  37370-4 0  9996,2 53555  53.2172 204.9286 0001494  98.1983 261.9178 15.08836073 83277,6917.892,95.438,540.791,538.724,0.0
53555.0,STARLINK-4504,PAYLOAD,2024-02-15 17:15:36,15.08838556,0.0001173,53.2167,204.3339,86.8426,273.27,5.3319e-05,5.61e-06,0.0,0 STARLINK-4504,1 53555U 22101AE  24046.71917072  .00000561  00000-0  53319-4 0  9996,2 53555  53.2167 204.3339 0001173  86.8426 273.2700 15.08838556 83291,6917.885,95.438,540.561,538.938,0.0
53555.0,STARLINK-4504,PAYLOAD,2024-02-16 13:55:36,15.08841628,0.0001292,53.2169,200.468,91.6252,268.4888,4.5495e-05,4.36e-06,0.0,0 STARLINK-4504,1 53555U 22101AE  24047.58028896  .00000436  00000-0  45495-4 0  9996,2 53555  53.2169 200.4680 0001292  91.6252 268.4888 15.08841628 83424,6917.875,95.437,540.634,538.847,0.0
53555.0,STARLINK-4504,PAYLOAD,2024-02-16 17:06:22,15.08847575,0.0001338,53.2177,199.874,91.7392,268.3753,8.2703e-05,1.029e-05,0.0,0 STARLINK-4504,1 53555U 22101AE  24047.71276442  .00001029  00000-0  82703-4 0  9995,2 53555  53.2177 199.8740 0001338  91.7392 268.3753 15.08847575 82783,6917.857,95.437,540.648,538.797,0.0
53555.0,STARLINK-4504,PAYLOAD,2024-02-16 20:17:08,15.08852844,0.0001327,53.2178,199.279,92.1079,268.0066,0.00013863,1.92e-05,0.0,0 STARLINK-4504,1 53555U 22101AE  24047.84523907  .00001920  00000-0  13863-3 0  9990,2 53555  53.2178 199.2790 0001327  92.1079 268.0066 15.08852844 83463,6917.841,95.437,540.624,538.788,0.0
53555.0,STARLINK-4504,PAYLOAD,2024-02-17 13:46:24,15.08831471,0.0001323,53.2182,196.0104,96.103,264.0113,1.4901e-05,-5.1e-07,0.0,0 STARLINK-4504,1 53555U 22101AE  24048.57389924 -.00000051  00000-0  14901-4 0  9990,2 53555  53.2182 196.0104 0001323  96.1030 264.0113 15.08831471 83573,6917.906,95.438,540.687,538.856,0.0
53555.0,STARLINK-4504,PAYLOAD,2024-02-17 18:32:34,15.0883547,0.0001313,53.2185,195.1173,86.8266,273.2876,5.0762e-05,5.2e-06,0.0,0 STARLINK-4504,1 53555U 22101AE  24048.77261758  .00000520  00000-0  50762-4 0  9991,2 53555  53.2185 195.1173 0001313  86.8266 273.2876 15.08835470 82949,6917.894,95.438,540.668,538.851,0.0
